SHIYAN-32 01            
1 66376U 25255A   25340.72814225  .00028217  00000+0  64636-3 0  9999
2 66376  52.9945 206.6612 0013460  23.4542 336.7073 15.42490212  4420
CZ-11 DEB               
1 66377U 25255B   25340.58389054  .00059535  00000+0  12843-2 0  9990
2 66377  52.9944 207.1849 0013827  20.1676 339.9872 15.43919275  4267
SHIYAN-32 02            
1 66378U 25255C   25340.70695392  .00071338  00000+0  15018-2 0  9992
2 66378  52.9924 206.5273 0011994  16.0718 344.0665 15.44584755  4285
SHIYAN-32 03            
1 66379U 25255D   25340.72172809  .00024567  00000+0  55754-3 0  9992
2 66379  52.9952 206.6219 0015506  24.3949 335.7786 15.42818211  4308
STARLINK-35139          
1 66380U 25257A   25340.60863377  .00087081  00000+0  21601-2 0  9993
2 66380  53.1600 293.5445 0002853  92.1489 267.9843 15.39648227  5363
STARLINK-35158          
1 66381U 25257B   25340.15389817  .00082754  00000+0  20570-2 0  9992
2 66381  53.1600 295.6823 0001106  95.9912 264.1218 15.39611903  5354
STARLINK-35639          
1 66382U 25257C   25340.27940866  .00103052  00000+0  25442-2 0  9991
2 66382  53.1609 295.0421 0000566 256.0040 104.0902 15.39708498  5373
STARLINK-35690          
1 66383U 25257D   25340.58335648  .00030677  00000+0  77539-3 0  9999
2 66383  53.1611 293.5587 0001336  79.1423 192.4006 15.39558062  5509
STARLINK-35662          
1 66384U 25257E   25340.58335648 -.00148002  00000+0 -37538-2 0  9998
2 66384  53.1613 293.5561 0001183  86.1796 187.1216 15.39688753  5500
STARLINK-35659          
1 66385U 25257F   25340.27908081  .00066840  00000+0  16658-2 0  9999
2 66385  53.1611 295.0411 0001373  72.9424 287.1731 15.39630174  5374
STARLINK-35651          
1 66386U 25257G   25340.58335648 -.00081200  00000+0 -20410-2 0  9997
2 66386  53.1608 293.5078 0001217  86.3877 210.8786 15.39630338  5501
STARLINK-35661          
1 66387U 25257H   25340.58335648 -.00116683  00000+0 -29477-2 0  9994
2 66387  53.1608 293.5043 0001675  88.3573 210.7151 15.39661844  5508
