CCSDS_OMM_VERS = 2.0
CREATION_DATE  = 
ORIGINATOR     = 

OBJECT_NAME    = SHIYAN-32 01
OBJECT_ID      = 2025-255A
CENTER_NAME    = EARTH
REF_FRAME      = TEME
TIME_SYSTEM    = UTC
MEAN_ELEMENT_THEORY = SGP/SGP4

EPOCH          = 2025-12-06T17:28:31.490400
MEAN_MOTION    = 15.42490212
ECCENTRICITY   = .001346
INCLINATION    = 52.9945
RA_OF_ASC_NODE = 206.6612
ARG_OF_PERICENTER = 23.4542
MEAN_ANOMALY   = 336.7073

EPHEMERIS_TYPE = 0
CLASSIFICATION_TYPE = U
NORAD_CAT_ID   = 66376
ELEMENT_SET_NO = 999
REV_AT_EPOCH   = 442
BSTAR          = .64636E-3
MEAN_MOTION_DOT = .28217E-3
MEAN_MOTION_DDOT = 0

CCSDS_OMM_VERS = 2.0
CREATION_DATE  = 
ORIGINATOR     = 

OBJECT_NAME    = CZ-11 DEB
OBJECT_ID      = 2025-255B
CENTER_NAME    = EARTH
REF_FRAME      = TEME
TIME_SYSTEM    = UTC
MEAN_ELEMENT_THEORY = SGP/SGP4

EPOCH          = 2025-12-06T14:00:48.142656
MEAN_MOTION    = 15.43919275
ECCENTRICITY   = .0013827
INCLINATION    = 52.9944
RA_OF_ASC_NODE = 207.1849
ARG_OF_PERICENTER = 20.1676
MEAN_ANOMALY   = 339.9872

EPHEMERIS_TYPE = 0
CLASSIFICATION_TYPE = U
NORAD_CAT_ID   = 66377
ELEMENT_SET_NO = 999
REV_AT_EPOCH   = 426
BSTAR          = .12842671E-2
MEAN_MOTION_DOT = .59535E-3
MEAN_MOTION_DDOT = 0

CCSDS_OMM_VERS = 2.0
CREATION_DATE  = 
ORIGINATOR     = 

OBJECT_NAME    = SHIYAN-32 02
OBJECT_ID      = 2025-255C
CENTER_NAME    = EARTH
REF_FRAME      = TEME
TIME_SYSTEM    = UTC
MEAN_ELEMENT_THEORY = SGP/SGP4

EPOCH          = 2025-12-06T16:58:00.818688
MEAN_MOTION    = 15.44584755
ECCENTRICITY   = .0011994
INCLINATION    = 52.9924
RA_OF_ASC_NODE = 206.5273
ARG_OF_PERICENTER = 16.0718
MEAN_ANOMALY   = 344.0665

EPHEMERIS_TYPE = 0
CLASSIFICATION_TYPE = U
NORAD_CAT_ID   = 66378
ELEMENT_SET_NO = 999
REV_AT_EPOCH   = 428
BSTAR          = .15018E-2
MEAN_MOTION_DOT = .71338E-3
MEAN_MOTION_DDOT = 0

CCSDS_OMM_VERS = 2.0
CREATION_DATE  = 
ORIGINATOR     = 

OBJECT_NAME    = SHIYAN-32 03
OBJECT_ID      = 2025-255D
CENTER_NAME    = EARTH
REF_FRAME      = TEME
TIME_SYSTEM    = UTC
MEAN_ELEMENT_THEORY = SGP/SGP4

EPOCH          = 2025-12-06T17:19:17.306976
MEAN_MOTION    = 15.42818211
ECCENTRICITY   = .0015506
INCLINATION    = 52.9952
RA_OF_ASC_NODE = 206.6219
ARG_OF_PERICENTER = 24.3949
MEAN_ANOMALY   = 335.7786

EPHEMERIS_TYPE = 0
CLASSIFICATION_TYPE = U
NORAD_CAT_ID   = 66379
ELEMENT_SET_NO = 999
REV_AT_EPOCH   = 430
BSTAR          = .55754E-3
MEAN_MOTION_DOT = .24567E-3
MEAN_MOTION_DDOT = 0

CCSDS_OMM_VERS = 2.0
CREATION_DATE  = 
ORIGINATOR     = 

OBJECT_NAME    = STARLINK-35139
OBJECT_ID      = 2025-257A
CENTER_NAME    = EARTH
REF_FRAME      = TEME
TIME_SYSTEM    = UTC
MEAN_ELEMENT_THEORY = SGP/SGP4

EPOCH          = 2025-12-06T14:36:25.957728
MEAN_MOTION    = 15.39648227
ECCENTRICITY   = .0002853
INCLINATION    = 53.1600
RA_OF_ASC_NODE = 293.5445
ARG_OF_PERICENTER = 92.1489
MEAN_ANOMALY   = 267.9843

EPHEMERIS_TYPE = 0
CLASSIFICATION_TYPE = U
NORAD_CAT_ID   = 66380
ELEMENT_SET_NO = 999
REV_AT_EPOCH   = 536
BSTAR          = .21600826E-2
MEAN_MOTION_DOT = .87081E-3
MEAN_MOTION_DDOT = 0

CCSDS_OMM_VERS = 2.0
CREATION_DATE  = 
ORIGINATOR     = 

OBJECT_NAME    = STARLINK-35158
OBJECT_ID      = 2025-257B
CENTER_NAME    = EARTH
REF_FRAME      = TEME
TIME_SYSTEM    = UTC
MEAN_ELEMENT_THEORY = SGP/SGP4

EPOCH          = 2025-12-06T03:41:36.801888
MEAN_MOTION    = 15.39611903
ECCENTRICITY   = .00011063
INCLINATION    = 53.1600
RA_OF_ASC_NODE = 295.6823
ARG_OF_PERICENTER = 95.9912
MEAN_ANOMALY   = 264.1218

EPHEMERIS_TYPE = 0
CLASSIFICATION_TYPE = U
NORAD_CAT_ID   = 66381
ELEMENT_SET_NO = 999
REV_AT_EPOCH   = 535
BSTAR          = .2056989E-2
MEAN_MOTION_DOT = .82754E-3
MEAN_MOTION_DDOT = 0

CCSDS_OMM_VERS = 2.0
CREATION_DATE  = 
ORIGINATOR     = 

OBJECT_NAME    = STARLINK-35639
OBJECT_ID      = 2025-257C
CENTER_NAME    = EARTH
REF_FRAME      = TEME
TIME_SYSTEM    = UTC
MEAN_ELEMENT_THEORY = SGP/SGP4

EPOCH          = 2025-12-06T06:42:20.908224
MEAN_MOTION    = 15.39708498
ECCENTRICITY   = .00005663
INCLINATION    = 53.1609
RA_OF_ASC_NODE = 295.0421
ARG_OF_PERICENTER = 256.0040
MEAN_ANOMALY   = 104.0902

EPHEMERIS_TYPE = 0
CLASSIFICATION_TYPE = U
NORAD_CAT_ID   = 66382
ELEMENT_SET_NO = 999
REV_AT_EPOCH   = 537
BSTAR          = .25441918E-2
MEAN_MOTION_DOT = .103052E-2
MEAN_MOTION_DDOT = 0

CCSDS_OMM_VERS = 2.0
CREATION_DATE  = 
ORIGINATOR     = 

OBJECT_NAME    = STARLINK-35690
OBJECT_ID      = 2025-257D
CENTER_NAME    = EARTH
REF_FRAME      = TEME
TIME_SYSTEM    = UTC
MEAN_ELEMENT_THEORY = SGP/SGP4

EPOCH          = 2025-12-06T14:00:01.999872
MEAN_MOTION    = 15.39558062
ECCENTRICITY   = .00013362
INCLINATION    = 53.1611
RA_OF_ASC_NODE = 293.5587
ARG_OF_PERICENTER = 79.1423
MEAN_ANOMALY   = 192.4006

EPHEMERIS_TYPE = 0
CLASSIFICATION_TYPE = U
NORAD_CAT_ID   = 66383
ELEMENT_SET_NO = 999
REV_AT_EPOCH   = 550
BSTAR          = .77538501E-3
MEAN_MOTION_DOT = .30677E-3
MEAN_MOTION_DDOT = 0

CCSDS_OMM_VERS = 2.0
CREATION_DATE  = 
ORIGINATOR     = 

OBJECT_NAME    = STARLINK-35662
OBJECT_ID      = 2025-257E
CENTER_NAME    = EARTH
REF_FRAME      = TEME
TIME_SYSTEM    = UTC
MEAN_ELEMENT_THEORY = SGP/SGP4

EPOCH          = 2025-12-06T14:00:01.999872
MEAN_MOTION    = 15.39688753
ECCENTRICITY   = .00011833
INCLINATION    = 53.1613
RA_OF_ASC_NODE = 293.5561
ARG_OF_PERICENTER = 86.1796
MEAN_ANOMALY   = 187.1216

EPHEMERIS_TYPE = 0
CLASSIFICATION_TYPE = U
NORAD_CAT_ID   = 66384
ELEMENT_SET_NO = 999
REV_AT_EPOCH   = 550
BSTAR          = -.37537524E-2
MEAN_MOTION_DOT = -.148002E-2
MEAN_MOTION_DDOT = 0

CCSDS_OMM_VERS = 2.0
CREATION_DATE  = 
ORIGINATOR     = 

OBJECT_NAME    = STARLINK-35659
OBJECT_ID      = 2025-257F
CENTER_NAME    = EARTH
REF_FRAME      = TEME
TIME_SYSTEM    = UTC
MEAN_ELEMENT_THEORY = SGP/SGP4

EPOCH          = 2025-12-06T06:41:52.581984
MEAN_MOTION    = 15.39630174
ECCENTRICITY   = .00013732
INCLINATION    = 53.1611
RA_OF_ASC_NODE = 295.0411
ARG_OF_PERICENTER = 72.9424
MEAN_ANOMALY   = 287.1731

EPHEMERIS_TYPE = 0
CLASSIFICATION_TYPE = U
NORAD_CAT_ID   = 66385
ELEMENT_SET_NO = 999
REV_AT_EPOCH   = 537
BSTAR          = .16658118E-2
MEAN_MOTION_DOT = .6684E-3
MEAN_MOTION_DDOT = 0

CCSDS_OMM_VERS = 2.0
CREATION_DATE  = 
ORIGINATOR     = 

OBJECT_NAME    = STARLINK-35651
OBJECT_ID      = 2025-257G
CENTER_NAME    = EARTH
REF_FRAME      = TEME
TIME_SYSTEM    = UTC
MEAN_ELEMENT_THEORY = SGP/SGP4

EPOCH          = 2025-12-06T14:00:01.999872
MEAN_MOTION    = 15.39630338
ECCENTRICITY   = .00012174
INCLINATION    = 53.1608
RA_OF_ASC_NODE = 293.5078
ARG_OF_PERICENTER = 86.3877
MEAN_ANOMALY   = 210.8786

EPHEMERIS_TYPE = 0
CLASSIFICATION_TYPE = U
NORAD_CAT_ID   = 66386
ELEMENT_SET_NO = 999
REV_AT_EPOCH   = 550
BSTAR          = -.20409721E-2
MEAN_MOTION_DOT = -.812E-3
MEAN_MOTION_DDOT = 0

CCSDS_OMM_VERS = 2.0
CREATION_DATE  = 
ORIGINATOR     = 

OBJECT_NAME    = STARLINK-35661
OBJECT_ID      = 2025-257H
CENTER_NAME    = EARTH
REF_FRAME      = TEME
TIME_SYSTEM    = UTC
MEAN_ELEMENT_THEORY = SGP/SGP4

EPOCH          = 2025-12-06T14:00:01.999872
MEAN_MOTION    = 15.39661844
ECCENTRICITY   = .00016751
INCLINATION    = 53.1608
RA_OF_ASC_NODE = 293.5043
ARG_OF_PERICENTER = 88.3573
MEAN_ANOMALY   = 210.7151

EPHEMERIS_TYPE = 0
CLASSIFICATION_TYPE = U
NORAD_CAT_ID   = 66387
ELEMENT_SET_NO = 999
REV_AT_EPOCH   = 550
BSTAR          = -.29477117E-2
MEAN_MOTION_DOT = -.116683E-2
MEAN_MOTION_DDOT = 0

